STRIX-4                 
1 60352U 24137A   26068.65404516  .00020530  00000+0  71820-3 0  9996
2 60352  43.0134 129.8162 0016840   5.2738 354.8289 15.29026223 88766
STARLINK-34050          
1 64331U 25124Q   26068.45214715  .00022104  00000+0  81013-3 0  9996
2 64331  42.9993 123.0924 0000671 244.0897 115.9885 15.27588946 42800
